{"fetched_at":"2026-03-29T16:36:15Z","count":15609,"tles":[{"name":"STARLINK-5885","line1":"1 56352U 23058AM  26087.89331607  .00000221  00000+0  21717-4 0  9995","line2":"2 56352  97.6063  89.0367 0002264  84.0290 276.1192 15.01261777161018","category":"Starlink"}]}